[{"OBJECT_NAME":"CAS500-3","OBJECT_ID":"2025-274F","EPOCH":"2026-03-09T17:15:29.131488","MEAN_MOTION":14.88373235,"ECCENTRICITY":0.00084602,"INCLINATION":97.7401,"RA_OF_ASC_NODE":359.0468,"ARG_OF_PERICENTER":99.396,"MEAN_ANOMALY":260.8214,"EPHEMERIS_TYPE":0,"CLASSIFICATION_TYPE":"U","NORAD_CAT_ID":66655,"ELEMENT_SET_NO":999,"REV_AT_EPOCH":1535,"BSTAR":0.00019463023,"MEAN_MOTION_DOT":1.75e-5,"MEAN_MOTION_DDOT":0},{"OBJECT_NAME":"COSMOS 2251 DEB","OBJECT_ID":"1993-036BPB","EPOCH":"2026-03-07T14:40:08.259744","MEAN_MOTION":14.83918046,"ECCENTRICITY":0.0006266,"INCLINATION":74.0191,"RA_OF_ASC_NODE":290.0736,"ARG_OF_PERICENTER":270.7521,"MEAN_ANOMALY":89.2939,"EPHEMERIS_TYPE":0,"CLASSIFICATION_TYPE":"U","NORAD_CAT_ID":37546,"ELEMENT_SET_NO":999,"REV_AT_EPOCH":67145,"BSTAR":0.0022663,"MEAN_MOTION_DOT":0.00018858,"MEAN_MOTION_DDOT":0}]
